ONEWEB-0029             
1 45445U 20020X   24154.51563989 -.00000174  00000+0 -52723-3 0  9993
2 45445  87.8961 169.2264 0002056  97.2742 262.8620 13.11412960205053
ONEWEB-0068             
1 45446U 20020Y   24154.49106650  .00000567  00000+0  15652-2 0  9992
2 45446  87.8962 169.2165 0002133  95.3804 264.7567 13.11418063204992
ONEWEB-0046             
1 45447U 20020Z   24154.48852853  .00000561  00000+0  15458-2 0  9993
2 45447  87.8964 169.2293 0001753  95.8819 264.2509 13.11415675205005
ONEWEB-0063             
1 45448U 20020AA  24154.44105057 -.00000246  00000+0 -73081-3 0  9996
2 45448  87.8961 169.2397 0001718  89.9412 270.1913 13.11416134205086
ONEWEB-0019             
1 45449U 20020AB  24154.49192061  .00000569  00000+0  15701-2 0  9993
2 45449  87.8967 169.2322 0002059  85.8858 274.2505 13.11416914204930
ONEWEB-0094             
1 45450U 20020AC  24154.49900069  .00000027  00000+0  36862-4 0  9992
2 45450  87.9162 154.0704 0002111  94.2429 265.8944 13.17650144208245
ONEWEB-0087             
1 45451U 20020AD  24154.45096154  .00032076  00000+0  90488-1 0  9990
2 45451  87.8955 169.2116 0002032  98.1261 262.0097 13.11162655204972
ONEWEB-0082             
1 45452U 20020AE  24154.44782137 -.00000471  00000+0 -13643-2 0  9998
2 45452  87.8962 169.2141 0002107  90.5388 269.5981 13.11414666205065
ONEWEB-0050             
1 45453U 20020AF  24154.62006490  .00003418  00000+0  35524-3 0  9995
2 45453  88.0046  31.8358 0005148 112.9460 247.2311 14.89647758229459
ONEWEB-0034             
1 45454U 20020AG  24154.46986810 -.00000151  00000+0 -46127-3 0  9995
2 45454  87.8963 169.2290 0002055  92.1791 267.9572 13.11419279204984
ONEWEB-0060             
1 45455U 20020AH  24154.48954260  .00000720  00000+0  20429-2 0  9998
2 45455  87.8967 169.2296 0001946  94.0021 266.1329 13.09847532204941
ONEWEB-0086             
1 45456U 20020AJ  24154.49531010  .00000565  00000+0  15594-2 0  9998
2 45456  87.8960 169.2251 0002185 103.2594 256.8777 13.11414722205005
ONEWEB-0088             
1 45457U 20020AK  24154.47327231  .00000051  00000+0  10755-3 0  9990
2 45457  87.8958 169.1954 0001992  94.2128 265.9228 13.11420140204933
ONEWEB-0102             
1 47258U 20100A   24154.45077102 -.00000339  00000+0 -97683-3 0  9993
2 47258  87.8931 138.9649 0002115  82.1243 278.0126 13.12530863167049
ONEWEB-0109             
1 47259U 20100B   24154.45876421 -.00000194  00000+0 -57526-3 0  9996
2 47259  87.8932 138.9278 0002160  83.7723 276.3651 13.12516061166877
ONEWEB-0110             
1 47260U 20100C   24154.48334685  .00000488  00000+0  13229-2 0  9997
2 47260  87.8924 138.9291 0002183  85.7660 274.3718 13.12317656167043
ONEWEB-0111             
1 47261U 20100D   24154.51579198 -.00000351  00000+0 -10096-2 0  9992
2 47261  87.8930 138.9182 0002129  85.1308 275.0063 13.12554618166886
ONEWEB-0114             
1 47262U 20100E   24154.46994988  .00000160  00000+0  40996-3 0  9994
2 47262  87.8925 138.9436 0002072  72.2468 287.8886 13.12492787166831
ONEWEB-0117             
1 47263U 20100F   24154.46195600 -.00000079  00000+0 -25531-3 0  9998
2 47263  87.8931 138.9199 0002075  87.5374 272.5992 13.12511952166849
ONEWEB-0118             
1 47264U 20100G   24154.49394281  .00000382  00000+0  10251-2 0  9995
2 47264  87.8929 138.9174 0001685  75.3605 284.7711 13.12445438167040
ONEWEB-0119             
1 47265U 20100H   24154.44595017 -.00000282  00000+0 -81730-3 0  9993
2 47265  87.8930 138.9654 0002139  87.2244 272.9130 13.12540035167012
ONEWEB-0120             
1 47266U 20100J   24154.54475014  .00000193  00000+0  50194-3 0  9998
2 47266  87.8932 138.9350 0002037  82.5103 277.6257 13.12500936167059
ONEWEB-0121             
1 47267U 20100K   24154.45714956 -.00000225  00000+0 -66041-3 0  9996
2 47267  87.8926 138.9441 0002210  89.3948 270.7433 13.12518181166958
ONEWEB-0122             
1 47268U 20100L   24154.45222817 -.00000335  00000+0 -96479-3 0  9997
2 47268  87.8929 138.9498 0002227  84.4128 275.7255 13.12529503166865
ONEWEB-0123             
1 47269U 20100M   24154.44753827 -.00000360  00000+0 -10341-2 0  9998
2 47269  87.8930 138.9638 0001985  84.1567 275.9788 13.12536919167007
ONEWEB-0124             
1 47270U 20100N   24154.51260277  .00000041  00000+0  79837-4 0  9991
2 47270  87.8930 138.9475 0002250  93.1501 266.9885 13.12559664166898
ONEWEB-0125             
1 47271U 20100P   24154.48813719  .00000490  00000+0  13290-2 0  9990
2 47271  87.8931 138.9110 0001735  92.7991 267.3336 13.12305067166950
ONEWEB-0126             
1 47272U 20100Q   24154.43875643 -.00000247  00000+0 -72189-3 0  9995
2 47272  87.8928 138.9279 0002108  82.7740 277.3628 13.12554322167012
ONEWEB-0127             
1 47273U 20100R   24154.47636577  .00000381  00000+0  10227-2 0  9992
2 47273  87.8930 138.9481 0002092  83.6956 276.4410 13.12483090167047
ONEWEB-0128             
1 47274U 20100S   24154.42253644  .00000355  00000+0  95160-3 0  9999
2 47274  87.8937 138.9615 0002336  88.5087 271.6309 13.12436369167056
ONEWEB-0129             
1 47275U 20100T   24154.47797457  .00000634  00000+0  17269-2 0  9993
2 47275  87.8930 138.9183 0002704  47.2675 312.8681 13.12476558166991
ONEWEB-0130             
1 47276U 20100U   24154.50621301 -.00000043  00000+0 -15381-3 0  9992
2 47276  87.8927 138.9207 0002196  84.1413 275.9966 13.12573704166963
ONEWEB-0131             
1 47277U 20100V   24154.50298723  .00000075  00000+0  17159-3 0  9999
2 47277  87.8932 138.9358 0002216  87.9571 272.1811 13.12579175167008
ONEWEB-0132             
1 47278U 20100W   24154.45555472 -.00000246  00000+0 -71710-3 0  9996
2 47278  87.8932 138.9472 0002082  94.4147 265.7219 13.12523483166896
ONEWEB-0133             
1 47279U 20100X   24154.47155565  .00000195  00000+0  50501-3 0  9994
2 47279  87.8926 138.9433 0002187  89.3284 270.8095 13.12489205167059
ONEWEB-0134             
1 47280U 20100Y   24154.44114808 -.00000331  00000+0 -95289-3 0  9994
2 47280  87.8924 138.9372 0002315  84.3945 275.7447 13.12548916167020
ONEWEB-0135             
1 47281U 20100Z   24154.48655332  .00000509  00000+0  13810-2 0  9995
2 47281  87.8930 138.9433 0002578  86.5108 273.6316 13.12308063167054
ONEWEB-0136             
1 47282U 20100AA  24154.50778557 -.00000087  00000+0 -27541-3 0  9994
2 47282  87.8929 138.9073 0002535  80.0972 280.0442 13.12573781166988
ONEWEB-0137             
1 47283U 20100AB  24154.46514973  .00000063  00000+0  14014-3 0  9993
2 47283  87.8924 138.9409 0001982  82.9271 277.2083 13.12502775166888
ONEWEB-0138             
1 47284U 20100AC  24154.44436042 -.00000324  00000+0 -93577-3 0  9995
2 47284  87.8926 138.9572 0002150  83.9918 276.1455 13.12545668166967
ONEWEB-0139             
1 47285U 20100AD  24154.49268046  .00000384  00000+0  10327-2 0  9993
2 47285  87.8931 138.9207 0002133  86.2263 273.9109 13.12375776167041
ONEWEB-0140             
1 47286U 20100AE  24154.51420209 -.00000311  00000+0 -89787-3 0  9997
2 47286  87.8925 138.9191 0002199  83.8482 276.2897 13.12555352167012
ONEWEB-0141             
1 47287U 20100AF  24154.47699466  .00000538  00000+0  14943-2 0  9996
2 47287  87.8927 138.9349 0001856  87.4198 272.7142 13.10832381166991
ONEWEB-0142             
1 47288U 20100AG  24154.45153905 -.00000323  00000+0 -93321-3 0  9990
2 47288  87.8928 138.9237 0002021  79.0778 281.0578 13.12529375166988
ONEWEB-0143             
1 47289U 20100AH  24154.48117416  .00000471  00000+0  12722-2 0  9998
2 47289  87.8928 138.9382 0002039  87.3451 272.7911 13.12471673166962
ONEWEB-0144             
1 47290U 20100AJ  24154.45394748 -.00000274  00000+0 -79533-3 0  9999
2 47290  87.8928 138.9272 0002137  76.2960 283.8406 13.12524360166888
ONEWEB-0145             
1 47291U 20100AK  24154.50138816  .00000089  00000+0  21168-3 0  9991
2 47291  87.8928 138.9419 0002130  83.0813 277.0558 13.12580829167086
ONEWEB-0146             
1 47292U 20100AL  24154.49716138  .00000304  00000+0  81083-3 0  9991
2 47292  87.8929 138.9258 0002057  98.9243 261.2119 13.12439605166991
ONEWEB-0147             
1 47293U 20100AM  24154.46357878 -.00000040  00000+0 -14712-3 0  9995
2 47293  87.8924 138.9271 0002369  83.5167 276.6231 13.12505683166886
ONEWEB-0115             
1 48042U 21025A   24154.61559831  .00000117  00000+0  28598-3 0  9995
2 48042  87.8913 108.4424 0002128  87.3523 272.7849 13.13468806155853
ONEWEB-0152             
1 48043U 21025B   24154.39976149  .00000349  00000+0  92197-3 0  9999
2 48043  87.8918 108.4823 0002115  85.4162 274.7208 13.13468063155784
ONEWEB-0153             
1 48044U 21025C   24154.60607397 -.00000098  00000+0 -30363-3 0  9990
2 48044  87.8921 108.4286 0002085  80.2047 279.9318 13.13469271155807
ONEWEB-0154             
1 48045U 21025D   24154.60289985 -.00000193  00000+0 -56364-3 0  9995
2 48045  87.8918 108.4411 0002169  82.5762 277.5614 13.13468915155768
ONEWEB-0116             
1 48046U 21025E   24154.56798919  .00000202  00000+0  51843-3 0  9999
2 48046  87.8922 108.4165 0002103  88.1828 271.9542 13.13467923155905
ONEWEB-0150             
1 48047U 21025F   24154.39023786  .00000315  00000+0  82632-3 0  9999
2 48047  87.8915 108.4718 0002002  80.0155 280.1200 13.13469193155773
ONEWEB-0107             
1 48048U 21025G   24154.39182437  .00000248  00000+0  64455-3 0  9997
2 48048  87.8919 108.4694 0002078  76.1232 284.0129 13.13467718155758
ONEWEB-0101             
1 48049U 21025H   24154.58385605 -.00000154  00000+0 -45674-3 0  9991
2 48049  87.8921 108.4463 0002175  81.3934 278.7442 13.13469332155753
ONEWEB-0113             
1 48050U 21025J   24154.56163507  .00000265  00000+0  69098-3 0  9993
2 48050  87.8920 108.4329 0002124  86.7876 273.3496 13.13467586155831
ONEWEB-0112             
1 48051U 21025K   24154.39658683  .00000357  00000+0  94270-3 0  9991
2 48051  87.8915 108.4662 0001988  82.7414 277.3941 13.13468775155826
